[{"OBJECT_NAME":"ONEWEB-0276","OBJECT_ID":"2021-060AD","EPOCH":"2026-05-08T06:55:07.142304","MEAN_MOTION":13.16596865,"ECCENTRICITY":0.000218,"INCLINATION":87.9092,"RA_OF_ASC_NODE":236.6964,"ARG_OF_PERICENTER":97.4036,"MEAN_ANOMALY":262.7343,"EPHEMERIS_TYPE":0,"CLASSIFICATION_TYPE":"U","NORAD_CAT_ID":48994,"ELEMENT_SET_NO":999,"REV_AT_EPOCH":23432,"BSTAR":-0.00025917000000000003,"MEAN_MOTION_DOT":-8.6e-07,"MEAN_MOTION_DDOT":0.0},{"OBJECT_NAME":"ONEWEB-0277","OBJECT_ID":"2021-060AE","EPOCH":"2026-05-08T05:23:55.757760","MEAN_MOTION":13.16595413,"ECCENTRICITY":0.0001872,"INCLINATION":87.9092,"RA_OF_ASC_NODE":236.7208,"ARG_OF_PERICENTER":97.1659,"MEAN_ANOMALY":262.9685,"EPHEMERIS_TYPE":0,"CLASSIFICATION_TYPE":"U","NORAD_CAT_ID":48995,"ELEMENT_SET_NO":999,"REV_AT_EPOCH":23430,"BSTAR":0.00037511,"MEAN_MOTION_DOT":1.56e-06,"MEAN_MOTION_DDOT":0.0},{"OBJECT_NAME":"ONEWEB-0278","OBJECT_ID":"2021-060AF","EPOCH":"2026-05-08T06:59:41.679168","MEAN_MOTION":13.16594985,"ECCENTRICITY":0.0001867,"INCLINATION":87.91,"RA_OF_ASC_NODE":236.6946,"ARG_OF_PERICENTER":109.6358,"MEAN_ANOMALY":250.4975,"EPHEMERIS_TYPE":0,"CLASSIFICATION_TYPE":"U","NORAD_CAT_ID":48996,"ELEMENT_SET_NO":999,"REV_AT_EPOCH":23444,"BSTAR":0.00044368,"MEAN_MOTION_DOT":1.82e-06,"MEAN_MOTION_DDOT":0.0},{"OBJECT_NAME":"ONEWEB-0279","OBJECT_ID":"2021-060AG","EPOCH":"2026-05-08T05:21:37.395936","MEAN_MOTION":13.16596727,"ECCENTRICITY":0.0002044,"INCLINATION":87.9099,"RA_OF_ASC_NODE":236.7067,"ARG_OF_PERICENTER":95.8769,"MEAN_ANOMALY":264.2595,"EPHEMERIS_TYPE":0,"CLASSIFICATION_TYPE":"U","NORAD_CAT_ID":48997,"ELEMENT_SET_NO":999,"REV_AT_EPOCH":23436,"BSTAR":0.00032638000000000003,"MEAN_MOTION_DOT":1.38e-06,"MEAN_MOTION_DDOT":0.0},{"OBJECT_NAME":"ONEWEB-0280","OBJECT_ID":"2021-060AH","EPOCH":"2026-05-08T05:43:17.894784","MEAN_MOTION":13.16595106,"ECCENTRICITY":0.0001574,"INCLINATION":87.9099,"RA_OF_ASC_NODE":236.7082,"ARG_OF_PERICENTER":100.8577,"MEAN_ANOMALY":259.2731,"EPHEMERIS_TYPE":0,"CLASSIFICATION_TYPE":"U","NORAD_CAT_ID":48998,"ELEMENT_SET_NO":999,"REV_AT_EPOCH":23430,"BSTAR":9.281000000000001e-05,"MEAN_MOTION_DOT":4.8e-07,"MEAN_MOTION_DDOT":0.0},{"OBJECT_NAME":"ONEWEB-0281","OBJECT_ID":"2021-060AJ","EPOCH":"2026-05-08T05:51:15.365376","MEAN_MOTION":13.16592862,"ECCENTRICITY":0.0001941,"INCLINATION":87.9099,"RA_OF_ASC_NODE":236.7015,"ARG_OF_PERICENTER":103.4577,"MEAN_ANOMALY":256.677,"EPHEMERIS_TYPE":0,"CLASSIFICATION_TYPE":"U","NORAD_CAT_ID":48999,"ELEMENT_SET_NO":999,"REV_AT_EPOCH":23437,"BSTAR":-3.3316000000000004e-05,"MEAN_MOTION_DOT":0.0,"MEAN_MOTION_DDOT":0.0},{"OBJECT_NAME":"ONEWEB-0282","OBJECT_ID":"2021-060AK","EPOCH":"2026-05-08T06:34:37.035264","MEAN_MOTION":13.16594225,"ECCENTRICITY":0.0001818,"INCLINATION":87.9095,"RA_OF_ASC_NODE":236.7056,"ARG_OF_PERICENTER":97.8436,"MEAN_ANOMALY":262.2902,"EPHEMERIS_TYPE":0,"CLASSIFICATION_TYPE":"U","NORAD_CAT_ID":49000,"ELEMENT_SET_NO":999,"REV_AT_EPOCH":23435,"BSTAR":0.00027193000000000003,"MEAN_MOTION_DOT":1.17e-06,"MEAN_MOTION_DDOT":0.0},{"OBJECT_NAME":"ONEWEB-0283","OBJECT_ID":"2021-060AL","EPOCH":"2026-05-08T06:18:38.167200","MEAN_MOTION":13.16595259,"ECCENTRICITY":0.000199,"INCLINATION":87.9094,"RA_OF_ASC_NODE":236.7073,"ARG_OF_PERICENTER":96.8253,"MEAN_ANOMALY":263.3105,"EPHEMERIS_TYPE":0,"CLASSIFICATION_TYPE":"U","NORAD_CAT_ID":49001,"ELEMENT_SET_NO":999,"REV_AT_EPOCH":23436,"BSTAR":6.3854e-05,"MEAN_MOTION_DOT":3.7e-07,"MEAN_MOTION_DDOT":0.0},{"OBJECT_NAME":"ONEWEB-0284","OBJECT_ID":"2021-060AM","EPOCH":"2026-05-08T06:09:30.576096","MEAN_MOTION":13.16595982,"ECCENTRICITY":0.0001641,"INCLINATION":87.9096,"RA_OF_ASC_NODE":236.7011,"ARG_OF_PERICENTER":105.8458,"MEAN_ANOMALY":254.2854,"EPHEMERIS_TYPE":0,"CLASSIFICATION_TYPE":"U","NORAD_CAT_ID":49002,"ELEMENT_SET_NO":999,"REV_AT_EPOCH":23434,"BSTAR":-3.7261e-05,"MEAN_MOTION_DOT":-1e-08,"MEAN_MOTION_DDOT":0.0},{"OBJECT_NAME":"ONEWEB-0285","OBJECT_ID":"2021-075A","EPOCH":"2026-05-08T04:31:02.628768","MEAN_MOTION":13.12443529,"ECCENTRICITY":0.0001716,"INCLINATION":87.8979,"RA_OF_ASC_NODE":358.6131,"ARG_OF_PERICENTER":80.6763,"MEAN_ANOMALY":279.456,"EPHEMERIS_TYPE":0,"CLASSIFICATION_TYPE":"U","NORAD_CAT_ID":49075,"ELEMENT_SET_NO":999,"REV_AT_EPOCH":22996,"BSTAR":-0.00032706,"MEAN_MOTION_DOT":-1.05e-06,"MEAN_MOTION_DDOT":0.0},{"OBJECT_NAME":"ONEWEB-0286","OBJECT_ID":"2021-075B","EPOCH":"2026-05-08T04:05:14.701920","MEAN_MOTION":13.12443094,"ECCENTRICITY":0.000185,"INCLINATION":87.897,"RA_OF_ASC_NODE":358.6376,"ARG_OF_PERICENTER":89.0823,"MEAN_ANOMALY":271.0517,"EPHEMERIS_TYPE":0,"CLASSIFICATION_TYPE":"U","NORAD_CAT_ID":49076,"ELEMENT_SET_NO":999,"REV_AT_EPOCH":22931,"BSTAR":0.0010133,"MEAN_MOTION_DOT":3.77e-06,"MEAN_MOTION_DDOT":0.0},{"OBJECT_NAME":"ONEWEB-0287","OBJECT_ID":"2021-075C","EPOCH":"2026-05-08T05:22:53.395104","MEAN_MOTION":13.17650223,"ECCENTRICITY":0.0001801,"INCLINATION":87.9169,"RA_OF_ASC_NODE":13.8097,"ARG_OF_PERICENTER":95.6643,"MEAN_ANOMALY":264.4694,"EPHEMERIS_TYPE":0,"CLASSIFICATION_TYPE":"U","NORAD_CAT_ID":49077,"ELEMENT_SET_NO":999,"REV_AT_EPOCH":22836,"BSTAR":2.3692e-05,"MEAN_MOTION_DOT":2.2e-07,"MEAN_MOTION_DDOT":0.0},{"OBJECT_NAME":"ONEWEB-0288","OBJECT_ID":"2021-075D","EPOCH":"2026-05-08T03:31:16.335840","MEAN_MOTION":13.12444134,"ECCENTRICITY":0.0001658,"INCLINATION":87.8981,"RA_OF_ASC_NODE":358.615,"ARG_OF_PERICENTER":89.3929,"MEAN_ANOMALY":270.7389,"EPHEMERIS_TYPE":0,"CLASSIFICATION_TYPE":"U","NORAD_CAT_ID":49078,"ELEMENT_SET_NO":999,"REV_AT_EPOCH":22993,"BSTAR":6.9208e-05,"MEAN_MOTION_DOT":3.8e-07,"MEAN_MOTION_DDOT":0.0},{"OBJECT_NAME":"ONEWEB-0289","OBJECT_ID":"2021-075E","EPOCH":"2026-05-08T04:29:14.139744","MEAN_MOTION":13.17649801,"ECCENTRICITY":0.0001463,"INCLINATION":87.9177,"RA_OF_ASC_NODE":13.832,"ARG_OF_PERICENTER":73.7044,"MEAN_ANOMALY":286.4249,"EPHEMERIS_TYPE":0,"CLASSIFICATION_TYPE":"U","NORAD_CAT_ID":49079,"ELEMENT_SET_NO":999,"REV_AT_EPOCH":22893,"BSTAR":0.00017674000000000002,"MEAN_MOTION_DOT":8.1e-07,"MEAN_MOTION_DDOT":0.0},{"OBJECT_NAME":"ONEWEB-0290","OBJECT_ID":"2021-075F","EPOCH":"2026-05-08T05:39:52.925472","MEAN_MOTION":13.17648513,"ECCENTRICITY":0.0001385,"INCLINATION":87.9178,"RA_OF_ASC_NODE":13.7927,"ARG_OF_PERICENTER":68.5699,"MEAN_ANOMALY":291.5581,"EPHEMERIS_TYPE":0,"CLASSIFICATION_TYPE":"U","NORAD_CAT_ID":49080,"ELEMENT_SET_NO":999,"REV_AT_EPOCH":22835,"BSTAR":0.00016815,"MEAN_MOTION_DOT":7.8e-07,"MEAN_MOTION_DDOT":0.0},{"OBJECT_NAME":"ONEWEB-0291","OBJECT_ID":"2021-075G","EPOCH":"2026-05-08T05:18:01.876320","MEAN_MOTION":13.17649618,"ECCENTRICITY":0.0001532,"INCLINATION":87.9179,"RA_OF_ASC_NODE":13.8042,"ARG_OF_PERICENTER":90.3211,"MEAN_ANOMALY":269.8096,"EPHEMERIS_TYPE":0,"CLASSIFICATION_TYPE":"U","NORAD_CAT_ID":49081,"ELEMENT_SET_NO":999,"REV_AT_EPOCH":22834,"BSTAR":9.885800000000001e-05,"MEAN_MOTION_DOT":5.1e-07,"MEAN_MOTION_DDOT":0.0}]