ONEWEB-0276             
1 48994U 21060AD  26128.28827711 -.00000086  00000+0 -25917-3 0  9990
2 48994  87.9092 236.6964 0002180  97.4036 262.7343 13.16596865234328
ONEWEB-0277             
1 48995U 21060AE  26128.22495090  .00000156  00000+0  37511-3 0  9995
2 48995  87.9092 236.7208 0001872  97.1659 262.9685 13.16595413234303
ONEWEB-0278             
1 48996U 21060AF  26128.29145462  .00000182  00000+0  44368-3 0  9995
2 48996  87.9100 236.6946 0001867 109.6358 250.4975 13.16594985234443
ONEWEB-0279             
1 48997U 21060AG  26128.22334949  .00000138  00000+0  32638-3 0  9997
2 48997  87.9099 236.7067 0002044  95.8769 264.2595 13.16596727234364
ONEWEB-0280             
1 48998U 21060AH  26128.23840156  .00000048  00000+0  92810-4 0  9990
2 48998  87.9099 236.7082 0001574 100.8577 259.2731 13.16595106234303
ONEWEB-0281             
1 48999U 21060AJ  26128.24392784  .00000000  00000+0 -33316-4 0  9996
2 48999  87.9099 236.7015 0001941 103.4577 256.6770 13.16592862234374
ONEWEB-0282             
1 49000U 21060AK  26128.27403976  .00000117  00000+0  27193-3 0  9992
2 49000  87.9095 236.7056 0001818  97.8436 262.2902 13.16594225234355
ONEWEB-0283             
1 49001U 21060AL  26128.26294175  .00000037  00000+0  63854-4 0  9997
2 49001  87.9094 236.7073 0001990  96.8253 263.3105 13.16595259234367
ONEWEB-0284             
1 49002U 21060AM  26128.25660389 -.00000001  00000+0 -37261-4 0  9997
2 49002  87.9096 236.7011 0001641 105.8458 254.2854 13.16595982234344
ONEWEB-0285             
1 49075U 21075A   26128.18822487 -.00000105  00000+0 -32706-3 0  9997
2 49075  87.8979 358.6131 0001716  80.6763 279.4560 13.12443529229962
ONEWEB-0286             
1 49076U 21075B   26128.17030905  .00000377  00000+0  10133-2 0  9991
2 49076  87.8970 358.6376 0001850  89.0823 271.0517 13.12443094229310
ONEWEB-0287             
1 49077U 21075C   26128.22422911  .00000022  00000+0  23692-4 0  9993
2 49077  87.9169  13.8097 0001801  95.6643 264.4694 13.17650223228366
ONEWEB-0288             
1 49078U 21075D   26128.14671685  .00000038  00000+0  69208-4 0  9999
2 49078  87.8981 358.6150 0001658  89.3929 270.7389 13.12444134229937
ONEWEB-0289             
1 49079U 21075E   26128.18696921  .00000081  00000+0  17674-3 0  9991
2 49079  87.9177  13.8320 0001463  73.7044 286.4249 13.17649801228935
ONEWEB-0290             
1 49080U 21075F   26128.23602923  .00000078  00000+0  16815-3 0  9990
2 49080  87.9178  13.7927 0001385  68.5699 291.5581 13.17648513228352
ONEWEB-0291             
1 49081U 21075G   26128.22085505  .00000051  00000+0  98858-4 0  9990
2 49081  87.9179  13.8042 0001532  90.3211 269.8096 13.17649618228345
